THOR 5                  
1 32487U 08006A   17281.29216028 -.00000020  00000-0  00000+0 0  9999
2 32487   0.0245 242.7077 0002567 323.3286 275.5265  1.00272299 35353
KIZUNA (WINDS)          
1 32500U 08007A   17280.81438250 -.00000268  00000-0  00000+0 0  9990
2 32500   1.0671  89.5900 0002440 104.3684 258.8844  1.00272652 35208
AMC-14                  
1 32708U 08011A   17281.10964709  .00000095  00000-0  00000+0 0  9998
2 32708  19.3194  61.1493 0033088 358.4034  14.9828  1.00267114 36274
DIRECTV 11              
1 32729U 08013A   17281.52972903 -.00000138  00000-0  00000+0 0  9993
2 32729   0.0220  27.1379 0000342 184.0114 257.7408  1.00271598 35112
ICO G1                  
1 32763U 08016A   17281.38902800 -.00000184  00000-0  00000+0 0  9998
2 32763   3.7955 356.4117 0002718 213.3533 214.6593  1.00271767 34645
VINASAT-1               
1 32767U 08018A   17280.58788035 -.00000339  00000-0  00000+0 0  9999
2 32767   0.0129 178.8448 0001824  36.9462 144.1967  1.00270704 34778
STAR ONE C2             
1 32768U 08018B   17280.14995627 -.00000275  00000-0  00000-0 0  9999
2 32768   0.0371 146.9482 0003479  74.5259 138.5312  1.00271998 34847
TIANLIAN 1-01           
1 32779U 08019A   17281.43105252 -.00000147  00000-0  10000-3 0  9994
2 32779   2.7812  75.3721 0033243 226.8956 310.1716  1.00270987 34648
AMOS-3                  
1 32794U 08022A   17280.90184907 -.00000046  00000-0  00000-0 0  9994
2 32794   0.0167 169.0537 0002106  35.6615 132.5808  1.00271201 50542
GALAXY 18 (G-18)        
1 32951U 08024A   17280.29685660  .00000015  00000-0  00000-0 0  9990
2 32951   0.0104 210.5212 0003414 356.1578 153.3350  1.00272217 14071
CHINASAT 9 (ZX 9)       
1 33051U 08028A   17280.84525661 -.00000258  00000-0  00000-0 0  9991
2 33051   0.0000 263.7610 0003505 287.1049 222.3068  1.00270000 34182
SKYNET 5C               
1 33055U 08030A   17281.40049456 -.00000151  00000-0  00000+0 0  9995
2 33055   0.0609  13.8231 0004167 185.6900 304.0882  1.00271236 34079
TURKSAT 3A              
1 33056U 08030B   17280.94215909  .00000135  00000-0  00000-0 0  9994
2 33056   0.0737  84.4306 0004261  93.4724 220.0550  1.00272758 20528
INTELSAT 25 (IS-25)     
1 33153U 08034A   17281.04058835 -.00000235  00000-0  00000+0 0  9992
2 33153   0.0133 234.2497 0002457 352.1384 133.6230  1.00270922 33815
BADR-6                  
1 33154U 08034B   17280.79698688  .00000134  00000-0  00000-0 0  9998
2 33154   0.0647  39.7722 0002057 134.6290 155.1509  1.00273045 33929
ECHOSTAR 11             
1 33207U 08035A   17281.25807983 -.00000068  00000-0  00000+0 0  9996
2 33207   0.0277 114.3143 0002960  97.3710 148.3282  1.00272029 33832
SUPERBIRD-C2            
1 33274U 08038A   17280.81438250 -.00000261  00000-0  00000+0 0  9996
2 33274   0.0375  92.7295 0002038 103.2995 257.7698  1.00272073 33554
AMC-21                  
1 33275U 08038B   17281.08868663  .00000025  00000-0  00000+0 0  9999
2 33275   0.0508  64.0761 0002680 153.2293  66.6569  1.00270448 33639
INMARSAT 4-F3           
1 33278U 08039A   17281.53128753 -.00000150  00000-0  00000+0 0  9992
2 33278   3.0264   2.5071 0003213 207.3313 260.8223  1.00271436 33444
NIMIQ 4                 
1 33373U 08044A   17280.85327249 -.00000231  00000-0  00000-0 0  9990
2 33373   0.0133 137.9786 0002029  61.0687  42.8478  1.00271999 33142
GALAXY 19 (G-19)        
1 33376U 08045A   17281.22208268 -.00000151  00000-0  00000+0 0  9995
2 33376   0.0104 183.7752 0003238  21.7208 154.5194  1.00271706 33018
VENESAT-1               
1 33414U 08055A   17281.10418289 -.00000249  00000-0  00000+0 0  9990
2 33414   0.0293 321.6305 0002902 268.2109 106.5763  1.00274212 32723
ASTRA 1M                
1 33436U 08057A   17280.84559817  .00000109  00000-0  00000-0 0  9994
2 33436   0.0549  97.0933 0004911  75.4198 167.7746  1.00272076 13916
CIEL-2                  
1 33453U 08063A   17280.73868757  .00000048  00000-0  00000-0 0  9996
2 33453   0.0146 185.5275 0003491  29.6685 298.4495  1.00271853 32336
EUTELSAT HOT BIRD 13C   
1 33459U 08065A   17280.91738142  .00000076  00000-0  00000+0 0  9998
2 33459   0.0221 350.0027 0004259 191.3452 178.6509  1.00271493 32427
EUTELSAT 48D            
1 33460U 08065B   17281.44181331  .00000112  00000-0  00000+0 0  9992
2 33460   0.0627  32.5061 0002817 187.9409   3.9894  1.00273013 32281
FENGYUN 2E              
1 33463U 08066A   17281.42618787 -.00000213  00000-0  00000+0 0  9997
2 33463   2.3922  67.7612 0005407 219.3631 330.3603  1.00271458 32268
EXPRESS-AM44            
1 33595U 09007A   17281.39563247 -.00000100  00000-0  00000+0 0  9990
2 33595   0.0217 304.7740 0000721 318.3837 245.5119  1.00272440 31736
NSS-9                   
1 33749U 09008A   17281.53183894  .00000060  00000-0  00000+0 0  9998
2 33749   0.0469  51.4583 0002465 145.3034 195.1333  1.00272587 31742
EUTELSAT 33E            
1 33750U 09008B   17280.94702414  .00000145  00000-0  00000-0 0  9994
2 33750   0.0457   4.0554 0005869 202.2383 184.5097  1.00270887 31621
TELSTAR 11N             
1 34111U 09009A   17281.04424497 -.00000262  00000-0  00000+0 0  9991
2 34111   0.0210 214.7479 0002235 321.6109 178.8688  1.00269110 31597
EUTELSAT 10A            
1 34710U 09016A   17280.84559817  .00000057  00000-0  00000-0 0  9998
2 34710   0.0669   6.0508 0004864 192.8125 132.2322  1.00270845  9424
SES-7 (PROTOSTAR 2)     
1 34941U 09027A   17281.01952991 -.00000356  00000-0  00000+0 0  9998
2 34941   0.0701  82.6856 0002485 161.4827 247.9985  1.00270435 30799
MEASAT-3A               
1 35362U 09032A   17280.69984316 -.00000253  00000-0  00000-0 0  9998
2 35362   0.0287 197.5526 0003379  17.8175 144.6391  1.00270738 30407
GOES 14                 
1 35491U 09033A   17281.24232963 -.00000105  00000-0  00000+0 0  9993
2 35491   0.3128 274.6303 0010474 307.6970 137.6231  1.00272970 30331
SIRIUS FM-5             
1 35493U 09034A   17280.85327249 -.00000211  00000-0  00000+0 0  9992
2 35493   0.0219 282.2442 0000590  99.7112 215.7867  1.00272589 30143
TERRESTAR-1             
1 35496U 09035A   17281.22344548 -.00000069  00000-0  00000+0 0  9990
2 35496   2.8111 346.7933 0002946 215.8407 143.8585  1.00271959 30332
ASIASAT 5               
1 35696U 09042A   17280.84547767 -.00000318  00000-0  00000-0 0  9993
2 35696   0.0112 253.3572 0001837 233.9373 294.2906  1.00270149 29840
JCSAT-RA (JCSAT-12)     
1 35755U 09044A   17280.59897286 -.00000355  00000-0  00000+0 0  9997
2 35755   0.0848  69.0257 0001466 129.6447 161.3559  1.00272012 29833
OPTUS D3                
1 35756U 09044B   17281.51022073 -.00000159  00000-0  00000+0 0  9997
2 35756   0.0184  50.9846 0002769 167.9185 138.1003  1.00268862 29813
PALAPA D                
1 35812U 09046A   17280.64040556 -.00000369  00000-0  00000-0 0  9995
2 35812   0.0355  70.8872 0002374 159.7701 129.3534  1.00271764 29851
NIMIQ 5                 
1 35873U 09050A   17280.84841056 -.00000268  00000-0  00000+0 0  9990
2 35873   0.0298 107.1744 0002281  95.8100  46.4536  1.00271905 29528
AMAZONAS 2              
1 35942U 09054A   17281.53799307 -.00000294  00000-0  00000+0 0  9998
2 35942   0.0379 135.3026 0004570  46.4421 328.3155  1.00273798 29365
COMSATBW-1              
1 35943U 09054B   17280.91061167  .00000013  00000-0  00000-0 0  9995
2 35943   0.0444  80.7370 0002559 138.6017 188.2667  1.00269491 29472
NSS-12                  
1 36032U 09058A   17280.79550360  .00000060  00000-0  00000-0 0  9995
2 36032   0.0394  76.1971 0002584 131.5437 152.2770  1.00273301 29109
THOR 6                  
1 36033U 09058B   17281.39077333 -.00000021  00000-0  00000+0 0  9994
2 36033   0.0274 133.8416 0002218  84.4762 298.7465  1.00272259 29145
INTELSAT 14 (IS-14)     
1 36097U 09064A   17281.07800649 -.00000285  00000-0  00000+0 0  9992
2 36097   0.0199 184.9194 0002687  16.8420 158.2272  1.00270138 28881
EUTELSAT 36B            
1 36101U 09065A   17280.94702414  .00000144  00000-0  00000-0 0  9999
2 36101   0.0680   7.2225 0004557 196.2653 190.1447  1.00269751 28892
INTELSAT 15 (IS-15)     
1 36106U 09067A   17281.42618788 -.00000196  00000-0  00000+0 0  9997
2 36106   0.0166 227.1531 0002550 348.4148  40.2510  1.00269732 28772
DIRECTV 12              
1 36131U 09075A   17281.30938559 -.00000114  00000-0  00000+0 0  9992
2 36131   0.0131 238.0285 0000368  39.4781 108.1956  1.00270108 28568
BEIDOU G1               
1 36287U 10001A   17280.89335350 -.00000293  00000-0  00000-0 0  9997
2 36287   1.4771   7.0472 0004489 175.8831 295.4195  1.00274998 28348
RADUGA-1M 2             
1 36358U 10002A   17280.82271615 -.00000195  00000-0  00000-0 0  9994
2 36358   0.0288 252.8448 0002486   6.0043 139.0248  1.00272227 18279
SDO                     
1 36395U 10005A   17280.25701644 -.00000049  00000-0  00000+0 0  9992
2 36395  28.8852 138.4261 0001448  93.6245 134.7627  1.00274358 28192
INTELSAT 16 (IS-16)     
1 36397U 10006A   17280.84354838 -.00000296  00000-0  00000+0 0  9993
2 36397   0.0186 159.5475 0001791  48.6934  54.0423  1.00272360 27900
GOES 15                 
1 36411U 10008A   17281.32845485  .00000078  00000-0  00000+0 0  9996
2 36411   0.2861 275.4775 0005031 273.8645 170.6796  1.00274064 27868
ECHOSTAR 14             
1 36499U 10010A   17281.24430581 -.00000011  00000-0  00000+0 0  9991
2 36499   0.0120 228.3232 0002863 328.6188 149.2006  1.00271353 27703
SES-1                   
1 36516U 10016A   17280.86299384 -.00000125  00000-0  00000-0 0  9995
2 36516   0.0441  58.4294 0002188 142.8241  25.1457  1.00271525 27225
ASTRA 3B                
1 36581U 10021A   17280.77103941  .00000126  00000-0  00000-0 0  9996
2 36581   0.0539 313.5692 0003037 244.3871 119.7217  1.00271733 27048
COMSATBW-2              
1 36582U 10021B   17281.34285514  .00000077  00000-0  00000+0 0  9992
2 36582   0.0153 240.0789 0002279 339.4273 294.3288  1.00273943 27167
